NORAD_CAT_ID,OBJECT_NAME,OBJECT_TYPE,EPOCH,MEAN_MOTION,ECCENTRICITY,INCLINATION,RA_OF_ASC_NODE,ARG_OF_PERICENTER,MEAN_ANOMALY,BSTAR,MEAN_MOTION_DOT,MEAN_MOTION_DDOT,TLE_LINE0,TLE_LINE1,TLE_LINE2,SEMIMAJOR_AXIS,PERIOD,APOGEE,PERIGEE,DECAYED
52860.0,STARLINK-4191,PAYLOAD,2023-02-03 11:55:13,15.08844941,0.0001947,53.2169,57.7579,98.1652,261.9561,8.8522e-05,1.121e-05,0.0,0 STARLINK-4191,1 52860U 22062AG  23034.49668310  .00001121  00000-0  88522-4 0  9996,2 52860  53.2169  57.7579 0001947  98.1652 261.9561 15.08844941 35306,6917.865,95.437,541.077,538.383,0.0
52860.0,STARLINK-4191,PAYLOAD,2023-02-04 06:59:51,15.08838462,0.0001918,53.2164,54.1889,98.0697,262.0513,8.3927e-05,1.048e-05,0.0,0 STARLINK-4191,1 52860U 22062AG  23035.29156791  .00001048  00000-0  83927-4 0  9992,2 52860  53.2164  54.1889 0001918  98.0697 262.0513 15.08838462 35919,6917.885,95.438,541.077,538.423,0.0
52860.0,STARLINK-4191,PAYLOAD,2023-02-04 10:10:37,15.08842018,0.0001862,53.2158,53.5936,96.0645,264.0559,0.00012997,1.781e-05,0.0,0 STARLINK-4191,1 52860U 22062AG  23035.42404627  .00001781  00000-0  12997-3 0  9993,2 52860  53.2158  53.5936 0001862  96.0645 264.0559 15.08842018 35449,6917.874,95.437,541.027,538.451,0.0
52860.0,STARLINK-4191,PAYLOAD,2023-02-04 18:07:33,15.0883796,0.0001918,53.2165,52.1068,92.0208,268.1003,7.4782e-05,9.02e-06,0.0,0 STARLINK-4191,1 52860U 22062AG  23035.75524935  .00000902  00000-0  74782-4 0  9999,2 52860  53.2165  52.1068 0001918  92.0208 268.1003 15.08837960 35495,6917.887,95.438,541.078,538.425,0.0
52860.0,STARLINK-4191,PAYLOAD,2023-02-05 10:01:24,15.08844582,0.0001809,53.2175,49.1339,92.892,267.2279,7.7093e-05,9.39e-06,0.0,0 STARLINK-4191,1 52860U 22062AG  23036.41764893  .00000939  00000-0  77093-4 0  9990,2 52860  53.2175  49.1339 0001809  92.8920 267.2279 15.08844582 36080,6917.866,95.437,540.983,538.48,0.0
52860.0,STARLINK-4191,PAYLOAD,2023-02-05 17:58:20,15.08839432,0.0001901,53.2164,47.6469,88.8591,271.2618,-1.3136e-05,-4.97e-06,0.0,0 STARLINK-4191,1 52860U 22062AG  23036.74885075 -.00000497  00000-0 -13136-4 0  9991,2 52860  53.2164  47.6469 0001901  88.8591 271.2618 15.08839432 35648,6917.882,95.438,541.062,538.432,0.0
52860.0,STARLINK-4191,PAYLOAD,2023-02-06 09:52:12,15.08841493,0.0001779,53.2174,44.6736,89.1911,270.9285,0.00011504,1.543e-05,0.0,0 STARLINK-4191,1 52860U 22062AG  23037.41125094  .00001543  00000-0  11504-3 0  9991,2 52860  53.2174  44.6736 0001779  89.1911 270.9285 15.08841493 36238,6917.876,95.437,540.972,538.51,0.0
52860.0,STARLINK-4191,PAYLOAD,2023-02-06 17:49:09,15.08815661,0.0001505,53.2174,43.1869,97.5566,262.5598,-0.00013545,-2.442e-05,0.0,0 STARLINK-4191,1 52860U 22062AG  23037.74247550 -.00002442  00000-0 -13545-3 0  9997,2 52860  53.2174  43.1869 0001505  97.5566 262.5598 15.08815661 36282,6917.955,95.439,540.861,538.779,0.0
52860.0,STARLINK-4191,PAYLOAD,2023-02-07 06:32:14,15.08833716,0.0001861,53.2165,40.8081,93.1231,266.9974,7.6712e-05,9.33e-06,0.0,0 STARLINK-4191,1 52860U 22062AG  23038.27238506  .00000933  00000-0  76712-4 0  9994,2 52860  53.2165  40.8081 0001861  93.1231 266.9974 15.08833716 36364,6917.9,95.438,541.052,538.477,0.0
52860.0,STARLINK-4191,PAYLOAD,2023-02-07 22:26:04,15.08853054,0.0001925,53.2168,37.8347,93.1866,266.9346,0.00038897,5.91e-05,0.0,0 STARLINK-4191,1 52860U 22062AG  23038.93477708  .00005910  00000-0  38897-3 0  9997,2 52860  53.2168  37.8347 0001925  93.1866 266.9346 15.08853054 36464,6917.84,95.437,541.037,538.374,0.0
52860.0,STARLINK-4191,PAYLOAD,2023-02-08 06:22:59,15.08874994,0.0001897,53.2172,36.348,94.642,265.4789,0.00064863,0.0001006,0.0,0 STARLINK-4191,1 52860U 22062AG  23039.26596448  .00010060  00000-0  64863-3 0  9991,2 52860  53.2172  36.3480 0001897  94.6420 265.4789 15.08874994 36518,6917.773,95.435,540.951,538.326,0.0
52860.0,STARLINK-4191,PAYLOAD,2023-02-08 11:09:08,15.08901984,0.0001829,53.2167,35.4557,94.1723,265.9479,0.0016064,0.00025414,0.0,0 STARLINK-4191,1 52860U 22062AG  23039.46468260  .00025414  00000-0  16064-2 0  9991,2 52860  53.2167  35.4557 0001829  94.1723 265.9479 15.08901984 36053,6917.691,95.434,540.821,538.291,0.0
52860.0,STARLINK-4191,PAYLOAD,2023-02-09 06:13:46,15.08848802,0.0001849,53.2175,31.8877,79.2152,280.9048,0.0016686,0.00026374,0.0,0 STARLINK-4191,1 52860U 22062AG  23040.25957091  .00026374  00000-0  16686-2 0  9991,2 52860  53.2175  31.8877 0001849  79.2152 280.9048 15.08848802 36664,6917.853,95.437,540.998,538.439,0.0
52860.0,STARLINK-4191,PAYLOAD,2023-02-09 09:24:33,15.08853923,0.000188,53.2177,31.293,78.7933,281.327,0.0018864,0.00029873,0.0,0 STARLINK-4191,1 52860U 22062AG  23040.39205024  .00029873  00000-0  18864-2 0  9995,2 52860  53.2177  31.2930 0001880  78.7933 281.3270 15.08853923 36196,6917.838,95.437,541.003,538.402,0.0
52860.0,STARLINK-4191,PAYLOAD,2023-02-09 10:59:56,15.08860854,0.000183,53.2175,30.9958,77.4461,282.6736,0.0021545,0.00034187,0.0,0 STARLINK-4191,1 52860U 22062AG  23040.45828932  .00034187  00000-0  21545-2 0  9995,2 52860  53.2175  30.9958 0001830  77.4461 282.6736 15.08860854 36201,6917.817,95.436,540.948,538.416,0.0
52860.0,STARLINK-4191,PAYLOAD,2023-02-09 23:43:02,15.08833121,0.0001947,53.2173,28.6163,89.1666,270.9549,0.0028944,0.00046069,0.0,0 STARLINK-4191,1 52860U 22062AG  23040.98821794  .00046069  00000-0  28944-2 0  9994,2 52860  53.2173  28.6163 0001947  89.1666 270.9549 15.08833121 36778,6917.901,95.438,541.113,538.419,0.0
52860.0,STARLINK-4191,PAYLOAD,2023-02-10 06:04:34,15.08873137,0.0002137,53.2172,27.4273,90.5523,269.5714,0.0025535,0.00040623,0.0,0 STARLINK-4191,1 52860U 22062AG  23041.25317131  .00040623  00000-0  25535-2 0  9993,2 52860  53.2172  27.4273 0002137  90.5523 269.5714 15.08873137 36810,6917.779,95.435,541.122,538.166,0.0
52860.0,STARLINK-4191,PAYLOAD,2023-02-11 05:55:20,15.08858253,0.000135,53.2179,22.9689,91.4389,268.6758,0.00087197,0.00013624,0.0,0 STARLINK-4191,1 52860U 22062AG  23042.24676952  .00013624  00000-0  87197-3 0  9996,2 52860  53.2179  22.9689 0001350  91.4389 268.6758 15.08858253 36960,6917.825,95.436,540.624,538.756,0.0
52860.0,STARLINK-4191,PAYLOAD,2023-02-11 07:30:43,15.08868567,0.0001693,53.2175,22.6701,107.4694,252.6484,0.0012265,0.00019301,0.0,0 STARLINK-4191,1 52860U 22062AG  23042.31300620  .00019301  00000-0  12265-2 0  9991,2 52860  53.2175  22.6701 0001693 107.4694 252.6484 15.08868567 36480,6917.793,95.436,540.829,538.487,0.0
52860.0,STARLINK-4191,PAYLOAD,2023-02-11 21:49:12,15.08849761,0.0002627,53.2191,19.9969,84.9596,275.1696,0.00093543,0.00014635,0.0,0 STARLINK-4191,1 52860U 22062AG  23042.90917180  .00014635  00000-0  93543-3 0  9995,2 52860  53.2191  19.9969 0002627  84.9596 275.1696 15.08849761 37066,6917.851,95.437,541.533,537.898,0.0
52860.0,STARLINK-4191,PAYLOAD,2023-02-12 07:21:31,15.08844388,0.0001462,53.2177,18.2109,84.2225,275.8934,0.0015822,0.00024985,0.0,0 STARLINK-4191,1 52860U 22062AG  23043.30661143  .00024985  00000-0  15822-2 0  9997,2 52860  53.2177  18.2109 0001462  84.2225 275.8934 15.08844388 37125,6917.867,95.437,540.743,538.721,0.0
52860.0,STARLINK-4191,PAYLOAD,2023-02-12 15:18:27,15.08836006,0.0001306,53.2155,16.7233,97.7543,262.3597,0.00059298,9.161e-05,0.0,0 STARLINK-4191,1 52860U 22062AG  23043.63781260  .00009161  00000-0  59298-3 0  9991,2 52860  53.2155  16.7233 0001306  97.7543 262.3597 15.08836006 37170,6917.893,95.438,540.661,538.854,0.0
52860.0,STARLINK-4191,PAYLOAD,2023-02-13 10:23:04,15.08854296,0.0001585,53.2151,13.1535,95.8798,264.2375,0.0010573,0.00016586,0.0,0 STARLINK-4191,1 52860U 22062AG  23044.43269411  .00016586  00000-0  10573-2 0  9990,2 52860  53.2151  13.1535 0001585  95.8798 264.2375 15.08854296 36807,6917.837,95.437,540.798,538.605,0.0
52860.0,STARLINK-4191,PAYLOAD,2023-02-13 15:09:14,15.08830439,9.16e-05,53.217,12.262,99.4914,260.6182,0.00013779,1.905e-05,0.0,0 STARLINK-4191,1 52860U 22062AG  23044.63141793  .00001905  00000-0  13779-3 0  9995,2 52860  53.2170  12.2620 0000916  99.4914 260.6182 15.08830439 37327,6917.91,95.438,540.408,539.141,0.0
52860.0,STARLINK-4191,PAYLOAD,2023-02-14 03:52:19,15.08863192,9.32e-05,53.2168,9.883,102.1561,257.9536,0.0013285,0.00020932,0.0,0 STARLINK-4191,1 52860U 22062AG  23045.16133535  .00020932  00000-0  13285-2 0  9991,2 52860  53.2168   9.8830 0000932 102.1561 257.9536 15.08863192 37400,6917.81,95.436,540.319,539.03,0.0
52860.0,STARLINK-4191,PAYLOAD,2023-02-14 15:00:01,15.08874849,8.09e-05,53.2164,7.8022,309.0452,51.0468,0.0022723,0.00036096,0.0,0 STARLINK-4191,1 52860U 22062AG  23045.62501162  .00036096  00000-0  22723-2 0  9992,2 52860  53.2164   7.8022 0000809 309.0452  51.0468 15.08874849 37472,6917.774,95.435,540.199,539.079,0.0
52860.0,STARLINK-4191,PAYLOAD,2023-02-15 03:43:07,15.08849597,0.0001204,53.2173,5.423,73.8813,286.2312,0.0027891,0.00044392,0.0,0 STARLINK-4191,1 52860U 22062AG  23046.15494246  .00044392  00000-0  27891-2 0  9994,2 52860  53.2173   5.4230 0001204  73.8813 286.2312 15.08849597 37555,6917.851,95.437,540.549,538.883,0.0
52860.0,STARLINK-4191,PAYLOAD,2023-02-16 00:23:06,15.08902365,0.0001279,53.2176,1.5588,119.2884,240.8236,0.0028342,0.00045185,0.0,0 STARLINK-4191,1 52860U 22062AG  23047.01604816  .00045185  00000-0  28342-2 0  9999,2 52860  53.2176   1.5588 0001279 119.2884 240.8236 15.08902365 37684,6917.69,95.434,540.44,538.67,0.0
52860.0,STARLINK-4191,PAYLOAD,2023-02-16 06:44:37,15.08928497,0.0001186,53.2163,0.3688,106.0161,254.0962,0.0029472,0.00047044,0.0,0 STARLINK-4191,1 52860U 22062AG  23047.28099520  .00047044  00000-0  29472-2 0  9999,2 52860  53.2163   0.3688 0001186 106.0161 254.0962 15.08928497 37235,6917.61,95.432,540.295,538.654,0.0
52860.0,STARLINK-4191,PAYLOAD,2023-02-16 22:38:29,15.0885359,7.57e-05,53.2181,357.3926,163.3264,196.7753,0.0012955,0.00020398,0.0,0 STARLINK-4191,1 52860U 22062AG  23047.94339731  .00020398  00000-0  12955-2 0  9994,2 52860  53.2181 357.3926 0000757 163.3264 196.7753 15.08853590 37824,6917.839,95.437,540.228,539.18,0.0
